QIANFAN-73              
1 63159U 25046A   25247.21049721  .00000215  00000+0  31463-3 0  9994
2 63159  88.9856 330.2978 0016310  58.2399 302.0339 13.50969135 33973
QIANFAN-74              
1 63160U 25046B   25247.19395350  .00000228  00000+0  33415-3 0  9998
2 63160  88.9856 330.1879 0002131 109.1901 250.9481 13.50974817 34035
QIANFAN-75              
1 63161U 25046C   25247.25579242  .00000229  00000+0  33607-3 0  9994
2 63161  88.9857 330.4137 0017493  60.6905 299.5992 13.50971241 33919
QIANFAN-76              
1 63162U 25046D   25247.25158918  .00000221  00000+0  32288-3 0  9994
2 63162  88.9857 330.3952 0015093  62.2663 298.0017 13.50967543 33920
QIANFAN-77              
1 63163U 25046E   25247.20186870  .00000561  00000+0  39918-3 0  9992
2 63163  88.9853 329.2244 0015598  39.9980 320.2343 13.96034589 34567
QIANFAN-78              
1 63164U 25046F   25247.21873286  .00000228  00000+0  33420-3 0  9990
2 63164  88.9856 330.2637 0016525  63.9123 296.3727 13.50970873 33996
QIANFAN-79              
1 63165U 25046G   25247.24739775  .00000222  00000+0  32479-3 0  9995
2 63165  88.9860 330.3644 0016159  62.4146 297.8644 13.50973116 33945
QIANFAN-80              
1 63166U 25046H   25247.18990828  .00000233  00000+0  34243-3 0  9990
2 63166  88.9857 330.0799 0015285  66.8811 293.3950 13.50973032 34091
